ONEWEB-0584             
1 54651U 22166K   24072.63282376  .00000119  00000+0  25719-3 0  9997
2 54651  87.9248  48.4817 0002346  87.5123 272.6279 13.21827582 62321
ONEWEB-0585             
1 54652U 22166L   24073.18792674 -.00000006  00000+0 -45249-4 0  9994
2 54652  87.9253  48.3775 0001974  77.2376 282.8978 13.21823774 62870
ONEWEB-0586             
1 54653U 22166M   24072.67068005 -.00000076  00000+0 -21506-3 0  9998
2 54653  87.9244  48.5019 0002212  85.8974 274.2412 13.21826186 62338
ONEWEB-0587             
1 54654U 22166N   24073.20999297  .00000120  00000+0  25798-3 0  9990
2 54654  87.9247  48.3510 0001658  80.3529 279.7793 13.21827103 63024
ONEWEB-0589             
1 54655U 22166P   24073.19739484 -.00000068  00000+0 -19590-3 0  9995
2 54655  87.9246  48.3810 0002861  94.4710 265.6750 13.21823686 62895
ONEWEB-0590             
1 54656U 22166Q   24073.22105662  .00000160  00000+0  35638-3 0  9997
2 54656  87.9254  48.3798 0001799  88.8396 271.2944 13.21826240 62871
ONEWEB-0591             
1 54657U 22166R   24073.15795620 -.00000085  00000+0 -23754-3 0  9993
2 54657  87.9245  48.3927 0002097  87.0079 273.1295 13.21826756 62891
ONEWEB-0592             
1 54658U 22166S   24072.63124341  .00000081  00000+0  16536-3 0  9996
2 54658  87.9241  48.4666 0002207  90.3387 269.8000 13.21830520 62240
